{"type":"FeatureCollection","features":[{"type":"Feature","properties":{"estacion":"Arrasate","codigo":"C023","lat":43.0695849,"lon":-2.49308,"alt":318},"geometry":{"type":"MultiPolygon","coordinates":[[[[-2.48257,42.96479],[-2.47721,42.96635],[-2.46448,42.96193],[-2.46099,42.9592],[-2.45621,42.95854],[-2.45558,42.95755],[-2.31629,43.08923],[-2.41392,43.32033],[-2.41546,43.31976],[-2.41786,43.31451],[-2.41996,43.3125],[-2.42548,43.31058],[-2.42941,43.30815],[-2.43216,43.30455],[-2.43261,43.30109],[-2.43697,43.2996],[-2.43973,43.29613],[-2.43879,43.29419],[-2.44008,43.29137],[-2.43969,43.28821],[-2.42949,43.28193],[-2.42684,43.27952],[-2.4269,43.27783],[-2.42471,43.27548],[-2.4224,43.27554],[-2.41961,43.27197],[-2.41928,43.26956],[-2.41787,43.26745],[-2.42489,43.25921],[-2.42895,43.25706],[-2.43142,43.25718],[-2.43318,43.25549],[-2.4331,43.25477],[-2.43507,43.25436],[-2.43904,43.25177],[-2.43842,43.25047],[-2.43932,43.24811],[-2.43673,43.24375],[-2.44311,43.24114],[-2.44456,43.23947],[-2.44406,43.23826],[-2.44702,43.23509],[-2.45623,43.22794],[-2.46195,43.22491],[-2.46255,43.22303],[-2.47393,43.22182],[-2.48304,43.22451],[-2.49079,43.22417],[-2.49391,43.22589],[-2.49773,43.22014],[-2.49755,43.2181],[-2.49964,43.21386],[-2.49883,43.21151],[-2.49941,43.20961],[-2.49627,43.20755],[-2.49496,43.20488],[-2.49116,43.20199],[-2.48692,43.20143],[-2.48817,43.19887],[-2.48647,43.19625],[-2.48895,43.19375],[-2.48771,43.18958],[-2.49248,43.18088],[-2.4902,43.17965],[-2.48984,43.1773],[-2.48522,43.17232],[-2.492,43.16907],[-2.49975,43.16783],[-2.50224,43.16603],[-2.50762,43.16667],[-2.50804,43.16532],[-2.50733,43.16446],[-2.50901,43.16288],[-2.50983,43.16075],[-2.50442,43.15522],[-2.50329,43.15515],[-2.50085,43.15207],[-2.50095,43.15055],[-2.50262,43.14873],[-2.50175,43.146],[-2.50328,43.14455],[-2.50276,43.14381],[-2.50366,43.14259],[-2.50273,43.14164],[-2.50406,43.13976],[-2.50276,43.14006],[-2.50251,43.134],[-2.50107,43.13015],[-2.49631,43.12339],[-2.50107,43.11898],[-2.50357,43.10514],[-2.50474,43.09661],[-2.50071,43.09626],[-2.50181,43.09499],[-2.5026,43.09539],[-2.50505,43.09476],[-2.5137,43.09001],[-2.51495,43.09099],[-2.51577,43.09068],[-2.51731,43.09114],[-2.51766,43.09185],[-2.52019,43.09236],[-2.523,43.09456],[-2.52578,43.09568],[-2.52903,43.0942],[-2.5344,43.09353],[-2.53904,43.09201],[-2.54431,43.09163],[-2.54639,43.08801],[-2.545,43.08696],[-2.54722,43.08451],[-2.54106,43.07643],[-2.54632,43.07628],[-2.54807,43.07449],[-2.54231,43.07009],[-2.54253,43.0667],[-2.54079,43.06274],[-2.5343,43.05939],[-2.52997,43.05498],[-2.52484,43.04536],[-2.52671,43.04567],[-2.53006,43.04497],[-2.53238,43.04095],[-2.53412,43.03984],[-2.53611,43.03659],[-2.54108,43.03334],[-2.54056,43.02545],[-2.54928,43.02],[-2.55503,43.0211],[-2.55658,43.01985],[-2.56004,43.01861],[-2.56294,43.01853],[-2.57068,43.01465],[-2.58036,43.0082],[-2.58167,43.00786],[-2.58406,43.00857],[-2.58985,43.0073],[-2.59181,43.00819],[-2.59611,43.00879],[-2.60057,43.00104],[-2.59889,42.99384],[-2.59277,42.98748],[-2.59453,42.98629],[-2.59829,42.98584],[-2.6006,42.98484],[-2.60271,42.98226],[-2.59478,42.97381],[-2.59376,42.97304],[-2.58911,42.97318],[-2.58737,42.97157],[-2.58677,42.96995],[-2.5816,42.96632],[-2.58065,42.96376],[-2.57601,42.96258],[-2.57335,42.96308],[-2.57158,42.96093],[-2.56647,42.96186],[-2.55884,42.96086],[-2.55689,42.95972],[-2.5511,42.95887],[-2.54825,42.95347],[-2.5449,42.95049],[-2.54213,42.95013],[-2.53963,42.95369],[-2.53803,42.95745],[-2.53896,42.96289],[-2.54033,42.96521],[-2.53807,42.9688],[-2.53563,42.97015],[-2.5347,42.97328],[-2.51124,42.96402],[-2.51083,42.96305],[-2.50678,42.96088],[-2.5012,42.95948],[-2.493,42.96174],[-2.48727,42.96469],[-2.48257,42.96479]]]]}},{"type":"Feature","properties":{"estacion":"Miramon","codigo":"C017","lat":43.2868,"lon":-1.97121,"alt":113},"geometry":{"type":"MultiPolygon","coordinates":[[[[-2.16845,43.28979],[-2.05169,43.20838],[-1.91121,43.20352],[-1.91104,43.20476],[-1.91208,43.20832],[-1.91343,43.21021],[-1.91242,43.21563],[-1.91377,43.21914],[-1.91298,43.22134],[-1.91607,43.22274],[-1.91458,43.22488],[-1.9109,43.22744],[-1.90943,43.22631],[-1.90858,43.22385],[-1.91057,43.22286],[-1.91091,43.22163],[-1.90981,43.22056],[-1.90445,43.21984],[-1.90346,43.219],[-1.90384,43.21764],[-1.90741,43.21739],[-1.90825,43.21686],[-1.90444,43.21449],[-1.90434,43.21219],[-1.90326,43.21131],[-1.89974,43.21108],[-1.89538,43.20958],[-1.89244,43.2104],[-1.89176,43.20837],[-1.89007,43.20732],[-1.88842,43.21139],[-1.88966,43.21434],[-1.88789,43.21472],[-1.88569,43.21351],[-1.88348,43.21115],[-1.88378,43.20862],[-1.88211,43.20667],[-1.88121,43.2074],[-1.8824,43.21027],[-1.88164,43.21218],[-1.88028,43.2123],[-1.87584,43.21011],[-1.87511,43.21091],[-1.87534,43.21336],[-1.87826,43.21365],[-1.87592,43.2158],[-1.87618,43.2172],[-1.87701,43.21731],[-1.87856,43.21473],[-1.87967,43.21439],[-1.88029,43.21501],[-1.87926,43.21711],[-1.88118,43.2181],[-1.87765,43.21889],[-1.87542,43.21821],[-1.87413,43.22003],[-1.87484,43.22055],[-1.8811,43.22051],[-1.88061,43.22178],[-1.87795,43.22336],[-1.8804,43.22532],[-1.87812,43.22738],[-1.88061,43.22779],[-1.88111,43.22921],[-1.87801,43.23025],[-1.8768,43.23199],[-1.87402,43.23024],[-1.87364,43.22674],[-1.8726,43.22637],[-1.868,43.23031],[-1.86693,43.22834],[-1.86716,43.22614],[-1.86535,43.22474],[-1.86623,43.22392],[-1.86462,43.22212],[-1.86625,43.21995],[-1.86663,43.2179],[-1.86339,43.21609],[-1.86279,43.21426],[-1.86387,43.21321],[-1.86368,43.21252],[-1.86253,43.21196],[-1.86103,43.21208],[-1.86031,43.21288],[-1.86069,43.21771],[-1.8577,43.21803],[-1.85935,43.21666],[-1.85725,43.21645],[-1.85572,43.21547],[-1.85422,43.21608],[-1.85463,43.21759],[-1.85748,43.2187],[-1.85574,43.2196],[-1.85384,43.21831],[-1.85285,43.21922],[-1.85344,43.22105],[-1.85052,43.2231],[-1.85071,43.22386],[-1.85242,43.22475],[-1.85273,43.22591],[-1.84999,43.22849],[-1.84857,43.22752],[-1.84981,43.22649],[-1.84981,43.22481],[-1.8473,43.22361],[-1.84504,43.22546],[-1.84191,43.22473],[-1.84101,43.22395],[-1.83607,43.22606],[-1.83535,43.22429],[-1.83459,43.2242],[-1.83389,43.22504],[-1.83491,43.22616],[-1.83519,43.22854],[-1.83417,43.22908],[-1.83229,43.22739],[-1.83031,43.22909],[-1.82757,43.22809],[-1.82559,43.22825],[-1.82254,43.23137],[-1.82295,43.23279],[-1.82221,43.23285],[-1.82181,43.23387],[-1.82247,43.23588],[-1.82098,43.23725],[-1.8198,43.23735],[-1.81921,43.23901],[-1.81804,43.23895],[-1.81701,43.23797],[-1.8161,43.23913],[-1.81472,43.23862],[-1.81312,43.23886],[-1.8127,43.23953],[-1.80737,43.23917],[-1.80557,43.24021],[-1.80398,43.24456],[-1.79932,43.24485],[-1.79506,43.24628],[-1.79576,43.25368],[-1.79299,43.25638],[-1.794,43.26077],[-1.79523,43.2626],[-1.79518,43.26463],[-1.79128,43.2693],[-1.79338,43.27218],[-1.7942,43.27647],[-1.78678,43.27984],[-1.78321,43.28459],[-1.78361,43.28514],[-1.78283,43.2866],[-1.78347,43.28688],[-1.77315,43.28895],[-1.76784,43.2878],[-1.76704,43.28651],[-1.76477,43.28585],[-1.76336,43.28756],[-1.76123,43.28785],[-1.7612,43.28958],[-1.75569,43.2904],[-1.75395,43.28916],[-1.75148,43.29049],[-1.75158,43.29129],[-1.74986,43.29285],[-1.74661,43.2934],[-1.74527,43.2931],[-1.74319,43.29458],[-1.74094,43.29351],[-1.73982,43.29597],[-1.73784,43.29597],[-1.73783,43.29505],[-1.73605,43.29462],[-1.73407,43.2952],[-1.73305,43.29416],[-1.72938,43.29368],[-1.72924,43.29435],[-1.73343,43.30211],[-1.73437,43.30754],[-1.73562,43.31009],[-1.73663,43.31075],[-1.7388,43.31069],[-1.7404,43.31133],[-1.73999,43.31249],[-1.73774,43.31367],[-1.74169,43.31677],[-1.7383,43.32069],[-1.73741,43.32282],[-1.73724,43.32396],[-1.73868,43.32584],[-1.73714,43.33009],[-1.74146,43.33163],[-1.74899,43.331],[-1.75163,43.3324],[-1.75292,43.33391],[-1.75279,43.33511],[-1.75152,43.33609],[-1.75293,43.34077],[-1.75712,43.34367],[-1.76198,43.34414],[-1.76859,43.34223],[-1.77217,43.3425],[-1.7766,43.34432],[-1.77773,43.34803],[-1.78219,43.34803],[-1.784,43.34868],[-1.79002,43.35303],[-1.7898,43.35532],[-1.78245,43.36177],[-1.78149,43.36398],[-1.78893,43.36921],[-1.79074,43.37182],[-1.79017,43.376],[-1.78719,43.38],[-1.78913,43.38065],[-1.7908,43.37859],[-1.79169,43.37868],[-1.79414,43.38006],[-1.79591,43.38237],[-1.79567,43.38371],[-1.79337,43.38558],[-1.79111,43.38438],[-1.79004,43.38515],[-1.79099,43.38491],[-1.79262,43.38596],[-1.79029,43.3876],[-1.79093,43.38787],[-1.7904,43.38857],[-1.78855,43.38638],[-1.78938,43.38548],[-1.78789,43.38619],[-1.78981,43.38878],[-1.78825,43.39094],[-1.79067,43.39101],[-1.79101,43.39171],[-1.78849,43.3931],[-1.79107,43.39284],[-1.79089,43.39368],[-1.79205,43.39388],[-1.7904,43.39529],[-1.79138,43.39561],[-1.79107,43.39596],[-1.79346,43.39494],[-1.79302,43.39398],[-1.7978,43.39267],[-1.80057,43.39084],[-1.80199,43.39072],[-1.8016,43.38994],[-1.80325,43.3882],[-1.80423,43.38846],[-1.80404,43.38894],[-1.8054,43.38803],[-1.80545,43.3894],[-1.80781,43.38829],[-1.80912,43.3886],[-1.81301,43.38764],[-1.81394,43.38788],[-1.81532,43.38627],[-1.8172,43.38653],[-1.82059,43.38506],[-1.82164,43.38351],[-1.82229,43.38561],[-1.82318,43.38486],[-1.82407,43.38545],[-1.8251,43.38432],[-1.82689,43.38513],[-1.82825,43.38408],[-1.83004,43.38416],[-1.83085,43.38362],[-1.83161,43.38422],[-1.83386,43.38364],[-1.83384,43.38308],[-1.83528,43.38284],[-1.83634,43.38183],[-1.83737,43.38151],[-1.83734,43.38231],[-1.8394,43.38085],[-1.83993,43.38116],[-1.84093,43.37951],[-1.84209,43.37931],[-1.84136,43.37845],[-1.8425,43.3784],[-1.84313,43.37749],[-1.84391,43.37765],[-1.84378,43.37814],[-1.84567,43.37632],[-1.84746,43.37836],[-1.84867,43.37787],[-1.84882,43.37973],[-1.85071,43.37776],[-1.85228,43.37758],[-1.85295,43.37582],[-1.85402,43.37561],[-1.8547,43.37456],[-1.85539,43.37512],[-1.85576,43.37477],[-1.85675,43.37547],[-1.85706,43.37516],[-1.85717,43.37565],[-1.85924,43.37462],[-1.86142,43.37024],[-1.86342,43.37182],[-1.86332,43.37243],[-1.86471,43.37183],[-1.86501,43.37252],[-1.86822,43.36945],[-1.87086,43.36925],[-1.87185,43.36434],[-1.87277,43.36355],[-1.87575,43.36284],[-1.87566,43.36159],[-1.87658,43.36146],[-1.87611,43.36112],[-1.87806,43.35653],[-1.88061,43.35276],[-1.88295,43.35105],[-1.8833,43.34956],[-1.88715,43.34899],[-1.88784,43.34805],[-1.89157,43.34632],[-1.89328,43.34623],[-1.89389,43.34509],[-1.89564,43.34528],[-1.89643,43.3439],[-1.90002,43.34332],[-1.89954,43.34293],[-1.90299,43.34141],[-1.9093,43.34035],[-1.91126,43.33853],[-1.9128,43.33871],[-1.91702,43.33661],[-1.92808,43.33576],[-1.92706,43.33572],[-1.92721,43.33507],[-1.92326,43.33324],[-1.92398,43.33278],[-1.92354,43.33033],[-1.92043,43.32724],[-1.91987,43.32549],[-1.917,43.32416],[-1.91643,43.32313],[-1.91259,43.32081],[-1.91201,43.32129],[-1.91156,43.32063],[-1.91038,43.32069],[-1.90975,43.32224],[-1.91108,43.32272],[-1.9102,43.32325],[-1.90324,43.32367],[-1.90189,43.32276],[-1.90291,43.32128],[-1.90369,43.32134],[-1.90366,43.32224],[-1.90452,43.32255],[-1.9078,43.32149],[-1.90977,43.31921],[-1.91359,43.31901],[-1.92323,43.3232],[-1.92427,43.32205],[-1.93183,43.32205],[-1.93198,43.3228],[-1.92573,43.32298],[-1.92483,43.3248],[-1.92263,43.32507],[-1.92159,43.32638],[-1.92316,43.32835],[-1.92558,43.32973],[-1.92543,43.33139],[-1.92625,43.33253],[-1.92816,43.33215],[-1.931,43.33299],[-1.93102,43.33375],[-1.93177,43.33383],[-1.93156,43.33536],[-1.93093,43.33553],[-1.9412,43.33554],[-1.94107,43.33518],[-1.94275,43.33504],[-1.9421,43.33488],[-1.94267,43.33456],[-1.94528,43.33425],[-1.94495,43.33356],[-1.94572,43.33339],[-1.9458,43.33258],[-1.94737,43.3319],[-1.94984,43.33262],[-1.95035,43.33462],[-1.9497,43.33463],[-1.95172,43.33506],[-1.95112,43.33527],[-1.95334,43.33643],[-1.95441,43.33587],[-1.95575,43.33664],[-1.95554,43.33559],[-1.96196,43.33822],[-1.96259,43.33799],[-1.96244,43.3365],[-1.96368,43.3365],[-1.96328,43.3359],[-1.9655,43.33643],[-1.96682,43.33592],[-1.96792,43.33402],[-1.9732,43.3358],[-1.97148,43.33254],[-1.97236,43.33182],[-1.97217,43.33003],[-1.9772,43.32722],[-1.97991,43.32757],[-1.98061,43.32792],[-1.97993,43.3287],[-1.9806,43.32872],[-1.98139,43.32659],[-1.97957,43.32379],[-1.98056,43.32341],[-1.9827,43.32607],[-1.98658,43.32667],[-1.98851,43.3276],[-1.99107,43.32749],[-1.99297,43.32526],[-1.99455,43.32457],[-1.99163,43.32241],[-1.99017,43.32233],[-1.99064,43.32288],[-1.9882,43.32352],[-1.98783,43.3229],[-1.98964,43.32283],[-1.98756,43.32285],[-1.9872,43.32208],[-1.98994,43.3225],[-1.98794,43.32185],[-1.98724,43.31954],[-1.9889,43.31735],[-1.99188,43.31608],[-1.99736,43.31587],[-2.00121,43.31724],[-2.00418,43.31888],[-2.00341,43.32035],[-2.00742,43.32377],[-2.00689,43.32396],[-2.00825,43.32433],[-2.01305,43.3237],[-2.0124,43.32218],[-2.01461,43.32091],[-2.01916,43.32205],[-2.02084,43.32143],[-2.02143,43.3222],[-2.0227,43.32243],[-2.02476,43.32078],[-2.02903,43.3205],[-2.02903,43.32102],[-2.03059,43.321],[-2.03354,43.31958],[-2.03709,43.3189],[-2.0378,43.31768],[-2.03889,43.3173],[-2.03962,43.31806],[-2.04047,43.31736],[-2.04533,43.31721],[-2.04651,43.31492],[-2.05169,43.31317],[-2.05721,43.31242],[-2.05986,43.31276],[-2.0625,43.31129],[-2.06385,43.31235],[-2.06537,43.31237],[-2.06698,43.31133],[-2.07057,43.31104],[-2.07245,43.30817],[-2.07382,43.30757],[-2.07855,43.30867],[-2.08479,43.30774],[-2.08932,43.3061],[-2.08979,43.3067],[-2.09628,43.30418],[-2.10225,43.30341],[-2.10457,43.30125],[-2.10743,43.30175],[-2.10905,43.30116],[-2.10994,43.30003],[-2.11146,43.30009],[-2.11353,43.29912],[-2.11511,43.29701],[-2.11976,43.29583],[-2.12153,43.29386],[-2.12262,43.29381],[-2.12303,43.29447],[-2.12395,43.294],[-2.12531,43.29193],[-2.12776,43.29072],[-2.13096,43.29088],[-2.13241,43.29174],[-2.12795,43.28657],[-2.1284,43.28416],[-2.1271,43.28558],[-2.12745,43.28298],[-2.12851,43.28321],[-2.12862,43.28385],[-2.1294,43.28279],[-2.13154,43.28302],[-2.12954,43.28484],[-2.13114,43.28542],[-2.1296,43.28567],[-2.13247,43.28845],[-2.13296,43.29046],[-2.13453,43.29154],[-2.14228,43.29342],[-2.14374,43.29258],[-2.14532,43.2928],[-2.14811,43.29415],[-2.14952,43.29604],[-2.15001,43.29447],[-2.15371,43.29322],[-2.1538,43.2914],[-2.15302,43.29076],[-2.15549,43.29275],[-2.1595,43.29129],[-2.16699,43.28988],[-2.16845,43.28979]]],[[[-1.99794,43.32257],[-2.00108,43.32195],[-2.00084,43.32101],[-2.00195,43.32069],[-2.00119,43.32062],[-1.99989,43.32037],[-1.99729,43.32147],[-1.9969,43.32218],[-1.99794,43.32257]]]]}},{"type":"Feature","properties":{"estacion":"Bidania","codigo":"C058","lat":43.146,"lon":-2.15502,"alt":592},"geometry":{"type":"MultiPolygon","coordinates":[[[[-2.41392,43.32033],[-2.31629,43.08923],[-2.09923,42.99968],[-2.05169,43.20838],[-2.16845,43.28979],[-2.17568,43.28933],[-2.1784,43.28999],[-2.17881,43.29144],[-2.18374,43.29492],[-2.18679,43.29297],[-2.18767,43.29291],[-2.18744,43.2936],[-2.18978,43.29261],[-2.19082,43.29554],[-2.19179,43.29555],[-2.19134,43.2983],[-2.19182,43.2981],[-2.19269,43.29945],[-2.19754,43.29905],[-2.20117,43.30089],[-2.20161,43.30292],[-2.19902,43.30398],[-2.20046,43.30344],[-2.20135,43.30389],[-2.20134,43.30516],[-2.20268,43.30483],[-2.20158,43.30675],[-2.2004,43.30671],[-2.20082,43.30524],[-2.19999,43.30634],[-2.19746,43.30542],[-2.19817,43.30385],[-2.19648,43.30559],[-2.19978,43.30696],[-2.19883,43.30928],[-2.19944,43.30962],[-2.19875,43.31002],[-2.19992,43.31019],[-2.20077,43.31166],[-2.20251,43.31183],[-2.20242,43.31039],[-2.20289,43.31012],[-2.20335,43.31066],[-2.20302,43.3097],[-2.20369,43.30923],[-2.20335,43.30689],[-2.20452,43.3056],[-2.2075,43.30509],[-2.20914,43.3063],[-2.21035,43.30623],[-2.21201,43.30731],[-2.21438,43.30768],[-2.21556,43.30916],[-2.22096,43.30959],[-2.22329,43.31077],[-2.22838,43.31114],[-2.23377,43.30917],[-2.23988,43.30865],[-2.24015,43.30574],[-2.23958,43.3052],[-2.24042,43.3044],[-2.24543,43.30307],[-2.24721,43.30372],[-2.24711,43.30456],[-2.24847,43.30246],[-2.25302,43.29931],[-2.2506,43.29699],[-2.25151,43.29631],[-2.25244,43.29697],[-2.25354,43.29624],[-2.25431,43.29694],[-2.25395,43.29823],[-2.25481,43.29618],[-2.25357,43.29529],[-2.25296,43.29552],[-2.25317,43.29504],[-2.25213,43.29473],[-2.25273,43.29429],[-2.25449,43.29473],[-2.25654,43.29628],[-2.25395,43.29922],[-2.24597,43.30554],[-2.24619,43.30609],[-2.24817,43.305],[-2.24919,43.30305],[-2.25019,43.30363],[-2.24975,43.30325],[-2.25159,43.30363],[-2.25212,43.30274],[-2.26049,43.30381],[-2.25988,43.30332],[-2.26068,43.30346],[-2.26053,43.30263],[-2.26104,43.30275],[-2.26014,43.30155],[-2.26194,43.30169],[-2.26233,43.30078],[-2.26415,43.30037],[-2.26365,43.30009],[-2.26816,43.30065],[-2.2685,43.30022],[-2.27022,43.30035],[-2.26983,43.29992],[-2.27078,43.29999],[-2.27261,43.29895],[-2.27557,43.29953],[-2.27608,43.29914],[-2.27548,43.29865],[-2.27827,43.29642],[-2.27952,43.29612],[-2.28454,43.2969],[-2.29293,43.29606],[-2.30204,43.29733],[-2.30345,43.29851],[-2.3042,43.29738],[-2.3066,43.29905],[-2.30738,43.29857],[-2.30739,43.29923],[-2.30842,43.29846],[-2.31197,43.30045],[-2.31312,43.30012],[-2.31253,43.29803],[-2.31731,43.29916],[-2.31719,43.29785],[-2.31803,43.29772],[-2.31818,43.29701],[-2.32017,43.29865],[-2.32101,43.29859],[-2.32146,43.29721],[-2.32459,43.29727],[-2.32762,43.29798],[-2.33315,43.30093],[-2.33866,43.30161],[-2.34008,43.30323],[-2.34103,43.30258],[-2.34288,43.3036],[-2.34367,43.30314],[-2.34527,43.30351],[-2.34594,43.30309],[-2.34605,43.30105],[-2.34755,43.30031],[-2.35305,43.30003],[-2.35433,43.30056],[-2.35426,43.30165],[-2.35625,43.29262],[-2.35619,43.29369],[-2.35661,43.29271],[-2.35736,43.29294],[-2.35636,43.29488],[-2.35532,43.30121],[-2.35685,43.3017],[-2.35701,43.30245],[-2.35588,43.30296],[-2.35658,43.30312],[-2.35581,43.30329],[-2.35676,43.30362],[-2.35613,43.30374],[-2.35656,43.30413],[-2.35789,43.3041],[-2.35762,43.30484],[-2.35813,43.3042],[-2.3641,43.30646],[-2.36475,43.30572],[-2.36583,43.3057],[-2.36946,43.30764],[-2.37011,43.30946],[-2.3729,43.30938],[-2.37243,43.30981],[-2.3744,43.30829],[-2.37661,43.30875],[-2.37872,43.30793],[-2.38072,43.30862],[-2.38062,43.30805],[-2.38352,43.30676],[-2.38386,43.30733],[-2.38267,43.30831],[-2.38341,43.30794],[-2.38333,43.30846],[-2.38204,43.30897],[-2.38105,43.30865],[-2.38191,43.30911],[-2.38067,43.31002],[-2.37991,43.30983],[-2.37837,43.31214],[-2.37551,43.31142],[-2.37656,43.3125],[-2.38038,43.31244],[-2.38068,43.31281],[-2.37955,43.3132],[-2.38111,43.31361],[-2.38251,43.31519],[-2.38454,43.31598],[-2.38614,43.31565],[-2.38724,43.31607],[-2.38817,43.31737],[-2.38957,43.31758],[-2.39134,43.31909],[-2.39298,43.31931],[-2.39494,43.32083],[-2.39592,43.32044],[-2.39653,43.32116],[-2.39808,43.32106],[-2.40023,43.32243],[-2.40082,43.32195],[-2.40097,43.32251],[-2.4013,43.32177],[-2.4032,43.32285],[-2.40396,43.3222],[-2.40459,43.32298],[-2.40492,43.32239],[-2.40548,43.32321],[-2.4066,43.32324],[-2.40716,43.3226],[-2.4077,43.3239],[-2.4084,43.32326],[-2.40797,43.3229],[-2.40874,43.3236],[-2.40902,43.32297],[-2.41046,43.32429],[-2.41042,43.32352],[-2.41187,43.32426],[-2.41103,43.32249],[-2.41292,43.32161],[-2.41327,43.32057],[-2.41392,43.32033]]]]}},{"type":"Feature","properties":{"estacion":"Berastegi","codigo":"C026","lat":43.1248,"lon":-1.9817,"alt":379},"geometry":{"type":"MultiPolygon","coordinates":[[[[-1.91121,43.20352],[-2.05169,43.20838],[-2.09923,42.99968],[-2.07639,42.97618],[-2.05294,42.97611],[-2.05122,42.97933],[-2.04874,42.97923],[-2.04839,42.97858],[-2.04373,42.97868],[-2.03805,42.98097],[-2.03849,42.98305],[-2.0367,42.98555],[-2.03272,42.98684],[-2.0285,42.99867],[-2.03176,42.99816],[-2.03263,42.99934],[-2.03254,43.00308],[-2.0339,43.0094],[-2.03479,43.01148],[-2.03948,43.0158],[-2.03924,43.01922],[-2.04106,43.02198],[-2.03994,43.02634],[-2.04123,43.02869],[-2.04094,43.0297],[-2.03148,43.03187],[-2.03056,43.03649],[-2.02818,43.03834],[-2.02556,43.0424],[-2.0206,43.04765],[-2.01864,43.05165],[-2.01959,43.05892],[-2.02115,43.06032],[-2.02248,43.06516],[-2.0244,43.06662],[-2.01847,43.0684],[-2.01785,43.06788],[-2.01592,43.06927],[-2.01347,43.07284],[-2.01225,43.07336],[-2.01018,43.07327],[-2.0013,43.07659],[-1.99578,43.07671],[-1.99038,43.0798],[-1.98941,43.07864],[-1.98294,43.08122],[-1.97788,43.08198],[-1.97485,43.08318],[-1.96981,43.08585],[-1.97031,43.08996],[-1.97182,43.09127],[-1.96584,43.09531],[-1.96226,43.09538],[-1.95221,43.09724],[-1.94965,43.09693],[-1.94745,43.09767],[-1.94866,43.09981],[-1.94713,43.09999],[-1.94717,43.10084],[-1.94577,43.10144],[-1.94409,43.10341],[-1.93888,43.10483],[-1.93768,43.10659],[-1.93906,43.10738],[-1.93928,43.10861],[-1.9378,43.10942],[-1.93311,43.11014],[-1.92955,43.11293],[-1.92634,43.11355],[-1.92442,43.11517],[-1.92102,43.11988],[-1.92159,43.12237],[-1.91667,43.12787],[-1.91359,43.12893],[-1.90968,43.13211],[-1.90194,43.1358],[-1.90338,43.14235],[-1.9059,43.14489],[-1.90828,43.14602],[-1.9113,43.14597],[-1.91769,43.14839],[-1.92023,43.15015],[-1.91787,43.15981],[-1.91547,43.16472],[-1.91671,43.16934],[-1.92061,43.17174],[-1.92099,43.17545],[-1.92255,43.17732],[-1.92293,43.17958],[-1.92156,43.18366],[-1.92211,43.18659],[-1.91947,43.18986],[-1.91797,43.19002],[-1.91502,43.19337],[-1.91375,43.19867],[-1.91138,43.20229],[-1.91121,43.20352]]]]}},{"type":"Feature","properties":{"estacion":"Zegama","codigo":"C028","lat":42.9588,"lon":-2.29852,"alt":520},"geometry":{"type":"MultiPolygon","coordinates":[[[[-2.07639,42.97618],[-2.09923,42.99968],[-2.31629,43.08923],[-2.45558,42.95755],[-2.45501,42.95666],[-2.45284,42.95584],[-2.44906,42.9563],[-2.44178,42.95898],[-2.43054,42.95787],[-2.42209,42.95572],[-2.41559,42.95886],[-2.40633,42.95965],[-2.40413,42.95706],[-2.39995,42.95667],[-2.39805,42.95394],[-2.39677,42.9532],[-2.3937,42.95211],[-2.38964,42.95269],[-2.37744,42.94827],[-2.37428,42.94815],[-2.37005,42.94904],[-2.36643,42.94727],[-2.36281,42.94686],[-2.36216,42.9477],[-2.36003,42.94765],[-2.35453,42.94963],[-2.35277,42.94804],[-2.35107,42.94251],[-2.33758,42.93529],[-2.33285,42.93358],[-2.32298,42.93156],[-2.31903,42.92947],[-2.31662,42.92915],[-2.31431,42.92668],[-2.30959,42.92605],[-2.30526,42.92742],[-2.30234,42.9258],[-2.30015,42.92283],[-2.29763,42.91491],[-2.29145,42.90756],[-2.29338,42.90563],[-2.29028,42.90216],[-2.2849,42.90106],[-2.27346,42.90111],[-2.26564,42.89914],[-2.26109,42.89905],[-2.25564,42.89788],[-2.25071,42.89547],[-2.24871,42.89704],[-2.24019,42.89507],[-2.23851,42.89558],[-2.23743,42.91637],[-2.23883,42.92107],[-2.23632,42.92681],[-2.23299,42.93214],[-2.22304,42.93415],[-2.22065,42.93387],[-2.2158,42.93754],[-2.21605,42.94327],[-2.211,42.94575],[-2.21027,42.94992],[-2.20275,42.94959],[-2.1987,42.95125],[-2.19255,42.94923],[-2.19026,42.94771],[-2.19074,42.94682],[-2.1902,42.94611],[-2.18643,42.94439],[-2.18343,42.94075],[-2.17993,42.9383],[-2.18068,42.935],[-2.16608,42.93587],[-2.16093,42.93793],[-2.15952,42.93992],[-2.15861,42.94001],[-2.15727,42.94248],[-2.15645,42.9427],[-2.14795,42.94132],[-2.14589,42.94124],[-2.14383,42.94193],[-2.13603,42.93998],[-2.13558,42.94105],[-2.13021,42.94088],[-2.12782,42.93895],[-2.12646,42.94011],[-2.12229,42.94173],[-2.11714,42.94219],[-2.11564,42.94382],[-2.11184,42.94529],[-2.11179,42.94606],[-2.1088,42.94662],[-2.10642,42.94809],[-2.10333,42.94847],[-2.10353,42.95134],[-2.10465,42.95383],[-2.103,42.95638],[-2.10145,42.95694],[-2.09851,42.95996],[-2.09825,42.96506],[-2.09567,42.97221],[-2.09273,42.97235],[-2.08902,42.97479],[-2.08657,42.97463],[-2.08592,42.97538],[-2.07994,42.97619],[-2.07639,42.97618]]]]}}]}